[{"OBJECT_NAME":"239ALFEROV (RS61S)","OBJECT_ID":"2025-155F","EPOCH":"2026-03-09T21:46:33.382848","MEAN_MOTION":15.29933217,"ECCENTRICITY":0.00084878,"INCLINATION":97.4469,"RA_OF_ASC_NODE":37.6373,"ARG_OF_PERICENTER":151.5904,"MEAN_ANOMALY":208.58,"EPHEMERIS_TYPE":0,"CLASSIFICATION_TYPE":"U","NORAD_CAT_ID":64881,"ELEMENT_SET_NO":999,"REV_AT_EPOCH":6561,"BSTAR":0.00067233359,"MEAN_MOTION_DOT":0.00019457,"MEAN_MOTION_DDOT":0},{"OBJECT_NAME":"STARLINK-35128","OBJECT_ID":"2025-210G","EPOCH":"2026-03-09T23:14:35.134944","MEAN_MOTION":15.30200232,"ECCENTRICITY":0.00010941,"INCLINATION":53.1606,"RA_OF_ASC_NODE":305.7955,"ARG_OF_PERICENTER":85.1696,"MEAN_ANOMALY":274.943,"EPHEMERIS_TYPE":0,"CLASSIFICATION_TYPE":"U","NORAD_CAT_ID":65628,"ELEMENT_SET_NO":999,"REV_AT_EPOCH":2777,"BSTAR":0.0011599933,"MEAN_MOTION_DOT":0.00034155,"MEAN_MOTION_DDOT":0}]
